CARTOSAT-2A             
1 32783U 08021A   26170.88755536  .00000313  00000+0  48811-4 0  9999
2 32783  97.7626 219.5043 0013237 101.0865 259.1836 14.79240850979204
CARTOSAT-2B             
1 36795U 10035A   26170.84346995  .00000632  00000+0  93329-4 0  9993
2 36795  97.9945 221.3767 0011432 175.0474 185.0852 14.78664535860240
CARBONITE 1 (CBNT-1)    
1 40718U 15032D   26170.81288477  .00001137  00000+0  14391-3 0  9994
2 40718  97.6509 348.7690 0013076 288.8991  71.0806 14.83593728589731
CARTOSAT-2C             
1 41599U 16040A   26170.82690137  .00002572  00000+0  12530-3 0  9990
2 41599  97.4477 230.7691 0010218 122.7248 237.4973 15.19207199554119
CARTOSAT-2D             
1 41948U 17008A   26170.85891323  .00000872  00000+0  44624-4 0  9997
2 41948  97.4097 230.1156 0003977 223.3930 136.6992 15.19217380517983
CARTOSAT-2E             
1 42767U 17036C   26170.81081666  .00002864  00000+0  13904-3 0  9994
2 42767  97.4267 230.5703 0002225 307.5148  52.5884 15.19269934498543
CARTOSAT-2F             
1 43111U 18004A   26170.84306293  .00002013  00000+0  98820-4 0  9990
2 43111  97.4780 230.4520 0000966 195.1312 164.9894 15.19227920467732
CARTOSAT-3              
1 44804U 19081A   26170.85769419  .00001378  00000+0  68429-4 0  9995
2 44804  97.4296 232.6823 0013396 139.8562 220.3665 15.19291936363878
CARBSAR                 
1 67397U 26004AL  26170.74434608  .00005106  00000+0  24294-3 0  9991
2 67397  97.4540 169.8826 0004716 348.0166  12.0956 15.19604091 24150
CAPELLA-20 (ACADIA-10)  
1 68485U 26067BX  26170.17185653  .00005438  00000+0  53978-3 0  9998
2 68485  97.7573 128.4499 0006073 177.8737 182.2509 14.92139485 12022
