{
 "generated_at": "2026-06-20T08:22:11Z",
 "sources": [
  {
   "name": "CelesTrak",
   "url": "https://celestrak.org/NORAD/elements/",
   "license": "frei verfügbar; Attribution. Ursprünglich USSPACECOM/Space-Track."
  },
  {
   "name": "GCAT (J. McDowell, planet4589.org)",
   "url": "https://planet4589.org/space/gcat/",
   "license": "CC-BY 4.0"
  }
 ],
 "satellites": [
  {
   "norad": 68485,
   "name": "CAPELLA-20 (ACADIA-10)",
   "intl": "2026-067BX",
   "group": "sar",
   "gcat": {
    "class": "B",
    "category": "IMG-R",
    "owner": "CAPSP",
    "state": "US"
   },
   "omm": {
    "OBJECT_NAME": "CAPELLA-20 (ACADIA-10)",
    "OBJECT_ID": "2026-067BX",
    "EPOCH": "2026-06-19T04:07:28.404192",
    "MEAN_MOTION": 14.92139485,
    "ECCENTRICITY": 0.00060736,
    "INCLINATION": 97.7573,
    "RA_OF_ASC_NODE": 128.4499,
    "ARG_OF_PERICENTER": 177.8737,
    "MEAN_ANOMALY": 182.2509,
    "EPHEMERIS_TYPE": 0,
    "CLASSIFICATION_TYPE": "U",
    "NORAD_CAT_ID": 68485,
    "ELEMENT_SET_NO": 999,
    "REV_AT_EPOCH": 1202,
    "BSTAR": 0.00053977864,
    "MEAN_MOTION_DOT": 0.00005438,
    "MEAN_MOTION_DDOT": 0
   }
  },
  {
   "norad": 40718,
   "name": "CARBONITE 1 (CBNT-1)",
   "intl": "2015-032D",
   "group": "resource",
   "gcat": {
    "class": "B",
    "category": "IMG",
    "owner": "SSTLA",
    "state": "UK"
   },
   "omm": {
    "OBJECT_NAME": "CARBONITE 1 (CBNT-1)",
    "OBJECT_ID": "2015-032D",
    "EPOCH": "2026-06-19T19:30:33.244128",
    "MEAN_MOTION": 14.83593728,
    "ECCENTRICITY": 0.0013076,
    "INCLINATION": 97.6509,
    "RA_OF_ASC_NODE": 348.769,
    "ARG_OF_PERICENTER": 288.8991,
    "MEAN_ANOMALY": 71.0806,
    "EPHEMERIS_TYPE": 0,
    "CLASSIFICATION_TYPE": "U",
    "NORAD_CAT_ID": 40718,
    "ELEMENT_SET_NO": 999,
    "REV_AT_EPOCH": 58973,
    "BSTAR": 0.00014391,
    "MEAN_MOTION_DOT": 0.00001137,
    "MEAN_MOTION_DDOT": 0
   }
  },
  {
   "norad": 67397,
   "name": "CARBSAR",
   "intl": "2026-004AL",
   "group": "sar",
   "gcat": {
    "class": "B",
    "category": "IMG-R",
    "owner": "SSTL",
    "state": "UK"
   },
   "omm": {
    "OBJECT_NAME": "CARBSAR",
    "OBJECT_ID": "2026-004AL",
    "EPOCH": "2026-06-19T17:51:51.501312",
    "MEAN_MOTION": 15.19604091,
    "ECCENTRICITY": 0.0004716,
    "INCLINATION": 97.454,
    "RA_OF_ASC_NODE": 169.8826,
    "ARG_OF_PERICENTER": 348.0166,
    "MEAN_ANOMALY": 12.0956,
    "EPHEMERIS_TYPE": 0,
    "CLASSIFICATION_TYPE": "U",
    "NORAD_CAT_ID": 67397,
    "ELEMENT_SET_NO": 999,
    "REV_AT_EPOCH": 2415,
    "BSTAR": 0.00024294,
    "MEAN_MOTION_DOT": 0.00005106,
    "MEAN_MOTION_DDOT": 0
   }
  },
  {
   "norad": 32783,
   "name": "CARTOSAT-2A",
   "intl": "2008-021A",
   "group": "resource",
   "gcat": {
    "class": "D",
    "category": "IMG",
    "owner": "ISRO",
    "state": "IN"
   },
   "omm": {
    "OBJECT_NAME": "CARTOSAT-2A",
    "OBJECT_ID": "2008-021A",
    "EPOCH": "2026-06-19T21:18:04.783104",
    "MEAN_MOTION": 14.7924085,
    "ECCENTRICITY": 0.0013237,
    "INCLINATION": 97.7626,
    "RA_OF_ASC_NODE": 219.5043,
    "ARG_OF_PERICENTER": 101.0865,
    "MEAN_ANOMALY": 259.1836,
    "EPHEMERIS_TYPE": 0,
    "CLASSIFICATION_TYPE": "U",
    "NORAD_CAT_ID": 32783,
    "ELEMENT_SET_NO": 999,
    "REV_AT_EPOCH": 97920,
    "BSTAR": 0.000048811,
    "MEAN_MOTION_DOT": 0.00000313,
    "MEAN_MOTION_DDOT": 0
   }
  },
  {
   "norad": 36795,
   "name": "CARTOSAT-2B",
   "intl": "2010-035A",
   "group": "resource",
   "gcat": {
    "class": "D",
    "category": "IMG",
    "owner": "ISRO",
    "state": "IN"
   },
   "omm": {
    "OBJECT_NAME": "CARTOSAT-2B",
    "OBJECT_ID": "2010-035A",
    "EPOCH": "2026-06-19T20:14:35.803680",
    "MEAN_MOTION": 14.78664535,
    "ECCENTRICITY": 0.0011432,
    "INCLINATION": 97.9945,
    "RA_OF_ASC_NODE": 221.3767,
    "ARG_OF_PERICENTER": 175.0474,
    "MEAN_ANOMALY": 185.0852,
    "EPHEMERIS_TYPE": 0,
    "CLASSIFICATION_TYPE": "U",
    "NORAD_CAT_ID": 36795,
    "ELEMENT_SET_NO": 999,
    "REV_AT_EPOCH": 86024,
    "BSTAR": 0.000093329,
    "MEAN_MOTION_DOT": 0.00000632,
    "MEAN_MOTION_DDOT": 0
   }
  },
  {
   "norad": 41599,
   "name": "CARTOSAT-2C",
   "intl": "2016-040A",
   "group": "resource",
   "gcat": {
    "class": "D",
    "category": "IMG",
    "owner": "ISRO",
    "state": "IN"
   },
   "omm": {
    "OBJECT_NAME": "CARTOSAT-2C",
    "OBJECT_ID": "2016-040A",
    "EPOCH": "2026-06-19T19:50:44.278368",
    "MEAN_MOTION": 15.19207199,
    "ECCENTRICITY": 0.0010218,
    "INCLINATION": 97.4477,
    "RA_OF_ASC_NODE": 230.7691,
    "ARG_OF_PERICENTER": 122.7248,
    "MEAN_ANOMALY": 237.4973,
    "EPHEMERIS_TYPE": 0,
    "CLASSIFICATION_TYPE": "U",
    "NORAD_CAT_ID": 41599,
    "ELEMENT_SET_NO": 999,
    "REV_AT_EPOCH": 55411,
    "BSTAR": 0.0001253,
    "MEAN_MOTION_DOT": 0.00002572,
    "MEAN_MOTION_DDOT": 0
   }
  },
  {
   "norad": 41948,
   "name": "CARTOSAT-2D",
   "intl": "2017-008A",
   "group": "resource",
   "gcat": {
    "class": "D",
    "category": "IMG",
    "owner": "ISRO",
    "state": "IN"
   },
   "omm": {
    "OBJECT_NAME": "CARTOSAT-2D",
    "OBJECT_ID": "2017-008A",
    "EPOCH": "2026-06-19T20:36:50.103072",
    "MEAN_MOTION": 15.1921738,
    "ECCENTRICITY": 0.0003977,
    "INCLINATION": 97.4097,
    "RA_OF_ASC_NODE": 230.1156,
    "ARG_OF_PERICENTER": 223.393,
    "MEAN_ANOMALY": 136.6992,
    "EPHEMERIS_TYPE": 0,
    "CLASSIFICATION_TYPE": "U",
    "NORAD_CAT_ID": 41948,
    "ELEMENT_SET_NO": 999,
    "REV_AT_EPOCH": 51798,
    "BSTAR": 0.000044624,
    "MEAN_MOTION_DOT": 0.00000872,
    "MEAN_MOTION_DDOT": 0
   }
  },
  {
   "norad": 42767,
   "name": "CARTOSAT-2E",
   "intl": "2017-036C",
   "group": "resource",
   "gcat": {
    "class": "D",
    "category": "IMG",
    "owner": "ISRO",
    "state": "IN"
   },
   "omm": {
    "OBJECT_NAME": "CARTOSAT-2E",
    "OBJECT_ID": "2017-036C",
    "EPOCH": "2026-06-19T19:27:34.559424",
    "MEAN_MOTION": 15.19269934,
    "ECCENTRICITY": 0.0002225,
    "INCLINATION": 97.4267,
    "RA_OF_ASC_NODE": 230.5703,
    "ARG_OF_PERICENTER": 307.5148,
    "MEAN_ANOMALY": 52.5884,
    "EPHEMERIS_TYPE": 0,
    "CLASSIFICATION_TYPE": "U",
    "NORAD_CAT_ID": 42767,
    "ELEMENT_SET_NO": 999,
    "REV_AT_EPOCH": 49854,
    "BSTAR": 0.00013904,
    "MEAN_MOTION_DOT": 0.00002864,
    "MEAN_MOTION_DDOT": 0
   }
  },
  {
   "norad": 43111,
   "name": "CARTOSAT-2F",
   "intl": "2018-004A",
   "group": "resource",
   "gcat": {
    "class": "D",
    "category": "IMG",
    "owner": "ISRO",
    "state": "IN"
   },
   "omm": {
    "OBJECT_NAME": "CARTOSAT-2F",
    "OBJECT_ID": "2018-004A",
    "EPOCH": "2026-06-19T20:14:00.637152",
    "MEAN_MOTION": 15.1922792,
    "ECCENTRICITY": 0.0000966,
    "INCLINATION": 97.478,
    "RA_OF_ASC_NODE": 230.452,
    "ARG_OF_PERICENTER": 195.1312,
    "MEAN_ANOMALY": 164.9894,
    "EPHEMERIS_TYPE": 0,
    "CLASSIFICATION_TYPE": "U",
    "NORAD_CAT_ID": 43111,
    "ELEMENT_SET_NO": 999,
    "REV_AT_EPOCH": 46773,
    "BSTAR": 0.00009882,
    "MEAN_MOTION_DOT": 0.00002013,
    "MEAN_MOTION_DDOT": 0
   }
  },
  {
   "norad": 44804,
   "name": "CARTOSAT-3",
   "intl": "2019-081A",
   "group": "resource",
   "gcat": {
    "class": "D",
    "category": "IMG",
    "owner": "ISRO",
    "state": "IN"
   },
   "omm": {
    "OBJECT_NAME": "CARTOSAT-3",
    "OBJECT_ID": "2019-081A",
    "EPOCH": "2026-06-19T20:35:04.778016",
    "MEAN_MOTION": 15.19291936,
    "ECCENTRICITY": 0.0013396,
    "INCLINATION": 97.4296,
    "RA_OF_ASC_NODE": 232.6823,
    "ARG_OF_PERICENTER": 139.8562,
    "MEAN_ANOMALY": 220.3665,
    "EPHEMERIS_TYPE": 0,
    "CLASSIFICATION_TYPE": "U",
    "NORAD_CAT_ID": 44804,
    "ELEMENT_SET_NO": 999,
    "REV_AT_EPOCH": 36387,
    "BSTAR": 0.000068429,
    "MEAN_MOTION_DOT": 0.00001378,
    "MEAN_MOTION_DDOT": 0
   }
  }
 ]
}
